STARLINK-32635          
1 62155U 24224S   26068.30572861  .00025123  00000+0  91924-3 0  9997
2 62155  42.9992 167.8490 0000431 242.1694 117.9114 15.27584108 72179
HERMES-4                
1 63833U 25052BP  26068.92081747  .00021364  00000+0  81237-3 0  9996
2 63833  97.4000 323.4610 0002652 154.9526 205.1842 15.26796135 54782
